NORAD_CAT_ID,OBJECT_NAME,OBJECT_TYPE,EPOCH,MEAN_MOTION,ECCENTRICITY,INCLINATION,RA_OF_ASC_NODE,ARG_OF_PERICENTER,MEAN_ANOMALY,BSTAR,MEAN_MOTION_DOT,MEAN_MOTION_DDOT,TLE_LINE0,TLE_LINE1,TLE_LINE2,SEMIMAJOR_AXIS,PERIOD,APOGEE,PERIGEE,DECAYED
53890.0,STARLINK-5050,PAYLOAD,2024-06-22 08:27:16,15.08835164,0.0001246,53.216,216.1527,84.3313,275.7821,1.7973e-05,-2e-08,0.0,0 STARLINK-5050,1 53890U 22119E   24174.35227122 -.00000002  00000-0  17973-4 0  9996,2 53890  53.2160 216.1527 0001246  84.3313 275.7821 15.08835164 97350,6917.895,95.438,540.622,538.898,0.0
53890.0,STARLINK-5050,PAYLOAD,2024-06-23 11:28:49,15.08839288,0.0001282,53.2161,211.0952,86.6726,273.4413,9.9721e-05,1.3e-05,0.0,0 STARLINK-5050,1 53890U 22119E   24175.47834790  .00001300  00000-0  99721-4 0  9997,2 53890  53.2161 211.0952 0001282  86.6726 273.4413 15.08839288 97522,6917.883,95.438,540.634,538.861,0.0
53890.0,STARLINK-5050,PAYLOAD,2024-06-24 09:44:13,15.08841838,0.0001326,53.2163,206.9343,82.3423,277.772,7.0585e-05,8.36e-06,0.0,0 STARLINK-5050,1 53890U 22119E   24176.40570769  .00000836  00000-0  70585-4 0  9994,2 53890  53.2163 206.9343 0001326  82.3423 277.7720 15.08841838 98081,6917.875,95.437,540.657,538.822,0.0
53890.0,STARLINK-5050,PAYLOAD,2024-06-25 07:59:37,15.08841001,0.0001396,53.2165,202.7719,80.3052,279.8098,7.9246e-06,-1.62e-06,0.0,0 STARLINK-5050,1 53890U 22119E   24177.33306983 -.00000162  00000-0  79246-5 0  9999,2 53890  53.2165 202.7719 0001396  80.3052 279.8098 15.08841001 97809,6917.877,95.437,540.708,538.777,0.0
53890.0,STARLINK-5050,PAYLOAD,2024-06-26 07:50:23,15.08843053,0.0001425,53.2162,198.3122,80.5491,279.5662,5.8287e-05,6.4e-06,0.0,0 STARLINK-5050,1 53890U 22119E   24178.32666572  .00000640  00000-0  58287-4 0  9993,2 53890  53.2162 198.3122 0001425  80.5491 279.5662 15.08843053 98372,6917.871,95.437,540.722,538.75,0.0
53890.0,STARLINK-5050,PAYLOAD,2024-06-27 04:30:24,15.08840594,0.000124,53.2151,194.4449,93.7106,266.4027,5.29e-05,5.54e-06,0.0,0 STARLINK-5050,1 53890U 22119E   24179.18778601  .00000554  00000-0  52900-4 0  9995,2 53890  53.2151 194.4449 0001240  93.7106 266.4027 15.08840594 98088,6917.879,95.438,540.601,538.886,0.0
53890.0,STARLINK-5050,PAYLOAD,2024-06-27 07:41:11,15.08839407,0.0001132,53.2143,193.8503,86.5304,273.5817,4.594e-05,4.43e-06,0.0,0 STARLINK-5050,1 53890U 22119E   24179.32026699  .00000443  00000-0  45940-4 0  9997,2 53890  53.2143 193.8503 0001132  86.5304 273.5817 15.08839407 98529,6917.882,95.438,540.53,538.964,0.0
53890.0,STARLINK-5050,PAYLOAD,2024-06-28 07:31:58,15.08840856,0.0001217,53.2147,189.3895,89.2712,270.8419,2.1211e-05,5e-07,0.0,0 STARLINK-5050,1 53890U 22119E   24180.31386764  .00000050  00000-0  21211-4 0  9999,2 53890  53.2147 189.3895 0001217  89.2712 270.8419 15.08840856 98252,6917.878,95.438,540.585,538.901,0.0
53890.0,STARLINK-5050,PAYLOAD,2024-06-29 10:33:31,15.08834771,0.0001238,53.215,184.3346,89.3424,270.771,3.3877e-05,2.51e-06,0.0,0 STARLINK-5050,1 53890U 22119E   24181.43995278  .00000251  00000-0  33877-4 0  9993,2 53890  53.2150 184.3346 0001238  89.3424 270.7710 15.08834771 98427,6917.896,95.438,540.618,538.905,0.0
53890.0,STARLINK-5050,PAYLOAD,2024-06-29 16:55:04,15.08838535,0.0001262,53.2154,183.1454,89.9922,270.1215,6.2942e-05,7.14e-06,0.0,0 STARLINK-5050,1 53890U 22119E   24181.70491020  .00000714  00000-0  62942-4 0  9998,2 53890  53.2154 183.1454 0001262  89.9922 270.1215 15.08838535 98880,6917.885,95.438,540.623,538.877,0.0
53890.0,STARLINK-5050,PAYLOAD,2024-06-30 10:24:19,15.08834526,0.0001322,53.216,179.875,92.8799,267.2344,6.2918e-06,-1.88e-06,0.0,0 STARLINK-5050,1 53890U 22119E   24182.43355684 -.00000188  00000-0  62918-5 0  9994,2 53890  53.2160 179.8750 0001322  92.8799 267.2344 15.08834526 98998,6917.897,95.438,540.677,538.848,0.0
53890.0,STARLINK-5050,PAYLOAD,2024-06-30 16:45:51,15.08837452,0.0001354,53.2164,178.6858,93.4834,266.6313,2.6859e-05,1.4e-06,0.0,0 STARLINK-5050,1 53890U 22119E   24182.69851496  .00000140  00000-0  26859-4 0  9994,2 53890  53.2164 178.6858 0001354  93.4834 266.6313 15.08837452 98619,6917.888,95.438,540.69,538.816,0.0
53890.0,STARLINK-5050,PAYLOAD,2024-07-01 08:39:42,15.08838342,0.0001387,53.2165,175.7124,99.3596,260.7553,8.0653e-05,9.96e-06,0.0,0 STARLINK-5050,1 53890U 22119E   24183.36091414  .00000996  00000-0  80653-4 0  9996,2 53890  53.2165 175.7124 0001387  99.3596 260.7553 15.08838342 99138,6917.885,95.438,540.71,538.791,0.0
53890.0,STARLINK-5050,PAYLOAD,2024-07-01 16:36:38,15.08842881,0.0001363,53.2167,174.2251,91.6512,268.4637,8.8167e-05,1.116e-05,0.0,0 STARLINK-5050,1 53890U 22119E   24183.69211116  .00001116  00000-0  88167-4 0  9998,2 53890  53.2167 174.2251 0001363  91.6512 268.4637 15.08842881 99188,6917.872,95.437,540.679,538.794,0.0
53890.0,STARLINK-5050,PAYLOAD,2024-07-02 05:19:43,15.08839413,0.0001329,53.2162,171.8461,95.135,264.9794,0.0001064,1.406e-05,0.0,0 STARLINK-5050,1 53890U 22119E   24184.22203338  .00001406  00000-0  10640-3 0  9997,2 53890  53.2162 171.8461 0001329  95.1350 264.9794 15.08839413 98844,6917.882,95.438,540.667,538.828,0.0
53890.0,STARLINK-5050,PAYLOAD,2024-07-02 08:30:29,15.08841934,0.0001308,53.2161,171.2512,94.5701,265.544,8.8422e-05,1.12e-05,0.0,0 STARLINK-5050,1 53890U 22119E   24184.35451241  .00001120  00000-0  88422-4 0  9996,2 53890  53.2161 171.2512 0001308  94.5701 265.5440 15.08841934 99289,6917.874,95.437,540.644,538.835,0.0
53890.0,STARLINK-5050,PAYLOAD,2024-07-02 16:27:25,15.08843764,0.0001287,53.2159,169.7642,93.7159,266.398,8.7515e-05,1.105e-05,0.0,0 STARLINK-5050,1 53890U 22119E   24184.68571041  .00001105  00000-0  87515-4 0  9998,2 53890  53.2159 169.7642 0001287  93.7159 266.3980 15.08843764 99333,6917.869,95.437,540.624,538.844,0.0
53890.0,STARLINK-5050,PAYLOAD,2024-07-03 16:18:12,15.08842476,0.0001329,53.2163,165.3023,101.1967,258.9174,2.9866e-05,1.87e-06,0.0,0 STARLINK-5050,1 53890U 22119E   24185.67931143  .00000187  00000-0  29866-4 0  9995,2 53890  53.2163 165.3023 0001329 101.1967 258.9174 15.08842476 99062,6917.873,95.437,540.657,538.818,0.0
53890.0,STARLINK-5050,PAYLOAD,2024-07-04 08:12:04,15.08840235,0.0001548,53.2177,162.3277,102.3209,257.7956,8.7925e-07,-2.74e-06,0.0,0 STARLINK-5050,1 53890U 22119E   24186.34171356 -.00000274  00000-0  87925-6 0  9992,2 53890  53.2177 162.3277 0001548 102.3209 257.7956 15.08840235 99583,6917.88,95.438,540.816,538.674,0.0
53890.0,STARLINK-5050,PAYLOAD,2024-07-05 04:52:04,15.08837995,0.0001558,53.2177,158.4627,98.9779,261.1389,2.7472e-05,1.49e-06,0.0,0 STARLINK-5050,1 53890U 22119E   24187.20283425  .00000149  00000-0  27472-4 0  9998,2 53890  53.2177 158.4627 0001558  98.9779 261.1389 15.08837995 99297,6917.887,95.438,540.829,538.674,0.0
53890.0,STARLINK-5050,PAYLOAD,2024-07-05 22:21:19,15.08835592,0.0001485,53.217,155.1913,98.2153,261.9008,3.6567e-05,2.94e-06,0.0,0 STARLINK-5050,1 53890U 22119E   24187.93147635  .00000294  00000-0  36567-4 0  9996,2 53890  53.2170 155.1913 0001485  98.2153 261.9008 15.08835592 99826,6917.894,95.438,540.786,538.732,0.0
53890.0,STARLINK-5050,PAYLOAD,2024-07-06 07:53:38,15.08834847,0.0001289,53.216,153.4092,91.2,268.914,7.3599e-06,-1.71e-06,0.0,0 STARLINK-5050,1 53890U 22119E   24188.32891917 -.00000171  00000-0  73599-5 0  9991,2 53890  53.2160 153.4092 0001289  91.2000 268.9140 15.08834847 99466,6917.896,95.438,540.653,538.869,0.0
53890.0,STARLINK-5050,PAYLOAD,2024-07-06 14:15:11,15.08838511,0.0001314,53.2164,152.2206,91.0553,269.059,-5.5261e-06,-3.76e-06,0.0,0 STARLINK-5050,1 53890U 22119E   24188.59387733 -.00000376  00000-0 -55261-5 0  9990,2 53890  53.2164 152.2206 0001314  91.0553 269.0590 15.08838511 99928,6917.885,95.438,540.659,538.841,0.0
53890.0,STARLINK-5050,PAYLOAD,2024-07-07 04:33:40,15.08830403,0.0001549,53.2179,149.548,101.4404,258.6762,-2.6819e-05,-7.15e-06,0.0,0 STARLINK-5050,1 53890U 22119E   24189.19004691 -.00000715  00000-0 -26819-4 0  9999,2 53890  53.2179 149.5480 0001549 101.4404 258.6762 15.08830403 99598,6917.91,95.438,540.846,538.703,0.0
53890.0,STARLINK-5050,PAYLOAD,2024-07-08 01:13:40,15.088403,0.0001365,53.2175,145.6802,98.9457,261.1689,3.4918e-05,2.68e-06,0.0,0 STARLINK-5050,1 53890U 22119E   24190.05116121  .00000268  00000-0  34918-4 0  9998,2 53890  53.2175 145.6802 0001365  98.9457 261.1689 15.08840300 99722,6917.879,95.438,540.689,538.8,0.0
53890.0,STARLINK-5050,PAYLOAD,2024-07-08 13:56:44,15.08849455,0.0001301,53.2168,143.2996,83.0077,277.1063,0.00013253,1.822e-05,0.0,0 STARLINK-5050,1 53890U 22119E   24190.58107218  .00001822  00000-0  13253-3 0  9998,2 53890  53.2168 143.2996 0001301  83.0077 277.1063 15.08849455100226,6917.851,95.437,540.617,538.816,0.0
53890.0,STARLINK-5050,PAYLOAD,2024-07-09 04:15:14,15.08834681,0.000132,53.2165,140.6229,80.0494,280.0647,3.5034e-05,2.7e-06,0.0,0 STARLINK-5050,1 53890U 22119E   24191.17724673  .00000270  00000-0  35034-4 0  9992,2 53890  53.2165 140.6229 0001320  80.0494 280.0647 15.08834681 99890,6917.897,95.438,540.675,538.848,0.0
53890.0,STARLINK-5050,PAYLOAD,2024-07-09 13:47:32,15.08843296,0.0001303,53.2167,138.839,83.3717,276.7423,9.037e-05,1.151e-05,0.0,0 STARLINK-5050,1 53890U 22119E   24191.57467970  .00001151  00000-0  90370-4 0  9993,2 53890  53.2167 138.8390 0001303  83.3717 276.7423 15.08843296100377,6917.87,95.437,540.637,538.834,0.0
53890.0,STARLINK-5050,PAYLOAD,2024-07-10 04:06:01,15.08840277,0.0001299,53.2163,136.1619,83.4241,276.6899,-2.6904e-05,-7.16e-06,0.0,0 STARLINK-5050,1 53890U 22119E   24192.17084632 -.00000716  00000-0 -26904-4 0  9990,2 53890  53.2163 136.1619 0001299  83.4241 276.6899 15.08840277100041,6917.88,95.438,540.643,538.846,0.0
53890.0,STARLINK-5050,PAYLOAD,2024-07-11 02:21:24,15.08847198,0.000129,53.2157,131.9991,88.288,271.826,9.7025e-05,1.257e-05,0.0,0 STARLINK-5050,1 53890U 22119E   24193.09819712  .00001257  00000-0  97025-4 0  9998,2 53890  53.2157 131.9991 0001290  88.2880 271.8260 15.08847198100186,6917.858,95.437,540.616,538.831,0.0
